OBJECT_NAME,OBJECT_ID,EPOCH,MEAN_MOTION,ECCENTRICITY,INCLINATION,RA_OF_ASC_NODE,ARG_OF_PERICENTER,MEAN_ANOMALY,EPHEMERIS_TYPE,CLASSIFICATION_TYPE,NORAD_CAT_ID,ELEMENT_SET_NO,REV_AT_EPOCH,BSTAR,MEAN_MOTION_DOT,MEAN_MOTION_DDOT
LEMUR-1,2014-033AL,2026-06-11T23:19:11.736768,14.85226096,.00497445,97.7866,312.8932,95.2951,265.3942,0,U,40044,999,64469,.236802E-3,.2021E-4,0
LEMUR-2-GREENBERG,2017-042N,2026-06-12T06:01:50.094336,15.31180547,.00089745,97.3814,343.9001,31.1061,329.0710,0,U,42837,999,48763,.5970513E-3,.17949E-3,0
LEMUR-2-ANDIS,2017-042P,2026-06-12T00:44:37.561920,15.34642942,.0008604,97.3674,343.8474,30.9613,329.2136,0,U,42838,999,48766,.57977992E-3,.19433E-3,0
LEMUR-2-MONSON,2017-042Q,2026-06-12T05:59:05.484192,15.27884488,.0006711,97.4074,343.8778,23.4664,336.6880,0,U,42839,999,48741,.5751058E-3,.15606E-3,0
LEMUR-2-FURIAUS,2017-042R,2026-06-12T05:47:52.527552,15.30094461,.00084003,97.3765,341.8569,84.1917,276.0282,0,U,42840,999,48745,.64645776E-3,.18797E-3,0
LEMUR-2-PETERG,2017-042S,2026-06-12T19:04:34.576896,15.33725373,.0003614,97.3980,348.8192,14.3564,345.7780,0,U,42841,999,48776,.7195E-3,.23434E-3,0
LEMUR-2-DEMBITZ,2017-042T,2026-06-12T06:16:43.663872,15.30146474,.0007169,97.3818,344.8967,45.2211,314.9612,0,U,42842,999,48759,.59587555E-3,.1734E-3,0
LEMUR-2-ZACHARY,2017-042W,2026-06-12T19:12:26.219808,15.49898456,.000322,97.3599,355.3456,50.0941,310.0593,0,U,42845,999,48852,.86629E-3,.48514E-3,0
LEMUR-2-AMANDA-SVANTE,2021-034B,2026-06-12T04:54:53.430912,15.34002849,.00016454,97.5768,241.3599,225.9579,134.1528,0,U,48269,999,28029,.10542552E-2,.3472E-3,0
LEMUR-2-SPECIAL-K,2021-034F,2026-06-12T19:09:39.104064,15.63261882,.0003735,97.5659,250.3415,232.6475,127.4443,0,U,48273,999,28100,.17039E-2,.158732E-2,0
LEMUR-2-EMBRIONOVIS,2023-084AQ,2026-06-12T03:00:21.943872,15.37422940,.00080443,97.6276,307.1313,340.2667,19.8265,0,U,56970,999,16690,.33243597E-3,.12128E-3,0
LEMUR-2-DEVERILL-M-T,2023-100F,2026-06-12T00:51:16.097472,15.39500186,.00068279,99.4479,200.3068,66.3960,293.7996,0,U,57391,999,16045,.6218075E-3,.24361E-3,0
LEMUR-2-BASS,2023-174D,2026-06-12T19:12:40.277088,15.42953540,.000738,97.3851,248.4516,176.3962,183.7340,0,U,58259,999,14468,.42033E-3,.18445E-3,0
LEMUR-2-JK0903EM1407,2023-174CJ,2026-06-12T18:11:51.146304,15.51461162,.0005926,97.3923,254.1041,132.2790,227.8966,0,U,58336,999,14504,.4815E-3,.28397E-3,0
LEMUR-2-MJR092620,2023-174CN,2026-06-12T18:05:48.103008,15.44719317,.0007079,97.3979,253.7017,130.4615,229.7252,0,U,58340,999,14496,.45902E-3,.21395E-3,0
LEMUR-2-NIMBUS2000,2024-022A,2026-06-12T03:21:59.542272,15.39838924,.00101652,97.4117,13.0791,131.2995,228.9127,0,U,58899,999,13149,.4600963E-3,.18228E-3,0
LEMUR-2-VALHALLA,2024-022B,2026-06-12T03:15:02.397024,15.39519746,.00107188,97.4117,13.0680,127.6268,232.5952,0,U,58900,999,13149,.38414796E-3,.15043E-3,0
LEMUR-2-OBA-NI-JESU,2024-022D,2026-06-12T20:10:24.114432,16.30243877,.0007962,97.3628,28.9776,241.6489,118.4002,0,U,58902,999,13263,.11544E-2,.5163416E-1,.24857E-5
LEMUR-2-CAEL,2024-022E,2026-06-12T20:43:59.930112,15.40839137,.0009269,97.4095,14.7334,110.2589,249.9655,0,U,58903,999,13167,.44836E-3,.18351E-3,0
LEMUR-2-JOHNNYTRUONG,2024-043BA,2026-06-11T22:55:33.669984,15.60077132,.00046271,97.5365,314.3366,191.7493,168.3656,0,U,59146,999,12722,.46449853E-3,.37645E-3,0
LEMUR-2-TOMATOKECHUP,2024-149D,2026-06-12T17:49:11.791776,15.35940328,.0001008,97.3803,245.7778,185.5972,174.5261,0,U,60471,999,10148,.33169E-3,.11528E-3,0
LEMUR-2-STELLA,2024-149BT,2026-06-12T18:42:25.380288,15.11718004,.000159,97.6740,246.2148,97.0219,263.1192,0,U,60533,999,9983,.81161E-3,.13777E-3,0
LEMUR-2-MARHISYAM,2024-149BW,2026-06-12T18:11:46.880736,15.11175904,.0003353,97.6889,246.6383,124.3485,235.8062,0,U,60536,999,9981,.7324E-3,.12239E-3,0
LEMUR-2-AHMED-ASRAR,2024-149DN,2026-06-12T19:07:03.026784,15.12616870,.0002098,97.7005,248.7525,51.0910,309.0508,0,U,60576,999,9990,.79231E-3,.13788E-3,0
LEMUR-2-LLOYD,2024-149DP,2026-06-12T04:51:11.395008,15.09145007,.00047206,97.6751,244.3288,151.2228,208.9261,0,U,60577,999,9964,.65818278E-3,.10392E-3,0
LEMUR-2-SQUIRRELCOMM,2024-149DQ,2026-06-12T19:22:13.782144,15.07105370,.00069,97.6716,244.7320,74.5873,285.6117,0,U,60578,999,9974,.39855E-3,.5925E-4,0
LEMUR-2-SIERRINI,2024-149DR,2026-06-12T18:44:19.809312,15.10857686,.000547,97.6843,246.3529,179.6383,180.4851,0,U,60579,999,9979,.82749E-3,.1372E-3,0
LEMUR-2-WILSON,2025-009CP,2026-06-12T17:52:42.009888,14.95146217,.0004307,97.7024,242.2873,66.7001,293.4673,0,U,62694,999,7669,.21921E-3,.2349E-4,0
LEMUR-2-STAR-FOX,2025-009CR,2026-06-12T18:19:59.347776,15.02441604,.0003383,97.6957,245.4041,122.5922,237.5630,0,U,62696,999,7689,.66933E-3,.882E-4,0
LEMUR-2-ARIANNA,2025-009CU,2026-06-12T18:17:31.107840,15.02423392,.0003719,97.6898,245.1804,128.8562,231.2995,0,U,62699,999,7689,.6907E-3,.91E-4,0
LEMUR-2-ALISIA,2025-009DB,2026-06-12T17:46:54.912576,15.02710876,.0001468,97.6969,245.9409,190.1286,169.9909,0,U,62706,999,9949,.64872E-3,.8607E-4,0
LEMUR-2-ROUNDTRIPPER,2025-009DG,2026-06-12T18:26:43.248768,15.03721302,.0004884,97.7257,246.4536,144.8107,215.3441,0,U,62711,999,7696,.73392E-3,.10014E-3,0
LEMUR-2-MYNAMEISJEFF,2025-009DH,2026-06-12T18:24:27.927360,15.03732636,.0003066,97.7306,246.8305,167.8832,192.2468,0,U,62712,999,7696,.68647E-3,.9363E-4,0
LEMUR-2-LEIA-PHILIP,2025-052AN,2026-06-12T04:35:25.530144,14.97307331,.00021202,97.6848,55.2262,227.8555,132.2487,0,U,63246,999,6792,.16574008E-3,.1864E-4,0
LEMUR-2-LIA-MARTIN,2025-052AQ,2026-06-12T06:21:10.718496,14.97768695,.00026482,97.6920,55.7660,163.9417,196.1890,0,U,63248,999,6794,.40829537E-3,.4735E-4,0
LEMUR-2-DELOITTE-1,2025-052BB,2026-06-12T05:46:13.248768,14.97565459,.00029574,97.6925,56.0710,107.3351,252.8195,0,U,63259,999,6795,.36532912E-3,.4208E-4,0
LEMUR-2-EMERSONROSE,2025-052BD,2026-06-12T05:17:29.452128,14.99047589,.00020587,97.6902,56.6011,66.8508,293.2932,0,U,63261,999,6799,.31696153E-3,.3787E-4,0
LEMUR-2-MARACHE-FRAN,2025-052BE,2026-06-12T04:46:48.208512,15.00052141,.00058748,97.6956,56.8851,39.7308,320.4345,0,U,63262,999,6801,.48331946E-3,.5963E-4,0
LEMUR-2-THEFALCONER,2025-052BG,2026-06-12T06:23:12.708384,14.97361642,.00032542,97.6885,55.7223,49.4414,310.7091,0,U,63264,999,6795,.31186417E-3,.3565E-4,0
LEMUR-2-UNTITLED-SC,2025-061A,2026-06-12T20:34:31.297152,15.13444437,.0016928,97.5627,139.2506,281.2525,78.6804,0,U,63351,999,6693,.21624E-3,.3811E-4,0
LEMUR-2-ESPERANZA,2025-061B,2026-06-12T05:45:09.881280,15.13531738,.00165527,97.5638,138.7298,282.9904,76.9478,0,U,63352,999,6684,.18975651E-3,.3343E-4,0
LEMUR-2-KREMPEL-BRO2,2025-061C,2026-06-12T20:42:37.882080,15.13974090,.0017446,97.5683,139.8766,272.2497,87.6736,0,U,63353,999,6695,.22639E-3,.4054E-4,0
LEMUR-2-THERMORAPTOR,2025-061D,2026-06-12T20:17:07.917792,15.14052341,.0017112,97.5686,139.9336,271.0755,88.8516,0,U,63354,999,6695,.21296E-3,.3817E-4,0
LEMUR-2-NEUROSPICY,2025-061E,2026-06-12T18:01:39.512928,15.14166105,.0014992,97.5614,139.4696,275.3963,84.5558,0,U,63355,999,6694,.26271E-3,.4737E-4,0
LEMUR-2-TILLINFINITY,2025-061F,2026-06-12T20:30:01.531296,15.14753118,.0016202,97.5598,139.8597,261.7932,98.1462,0,U,63356,999,6698,.20723E-3,.3786E-4,0
LEMUR-2-KREMPEL-BRO1,2025-061G,2026-06-12T19:51:01.457280,15.14557900,.0016889,97.5600,139.7499,263.2502,96.6808,0,U,63357,999,6697,.23686E-3,.4315E-4,0
LEMUR-2-LANGER2SPACE,2025-061H,2026-06-12T20:27:56.238336,15.14255964,.0014839,97.5605,139.5910,273.2993,86.6541,0,U,63358,999,6696,.2148E-3,.387E-4,0
LEMUR-2-BALTO,2025-052BH,2026-06-12T06:00:43.384032,15.00033875,.0006834,97.6895,56.9176,70.3203,289.8758,0,U,63395,999,6802,.48761504E-3,.6014E-4,0
LEMUR-2-KRISH,2025-135AK,2026-06-12T20:39:54.065088,14.96166699,.000161,97.7734,278.7672,105.0630,255.0770,0,U,64561,999,5327,.49728E-3,.5545E-4,0
LEMUR-2-HUBBLE-4,2025-135AP,2026-06-12T20:20:33.274176,14.93185282,.0001223,97.7695,277.8064,336.2140,23.9023,0,U,64565,999,5322,.14106E-3,.1416E-4,0
LEMUR-2-SEJONG-2,2025-135BL,2026-06-12T19:48:50.493888,14.96667268,.0004199,97.7688,278.8768,359.3480,0.7735,0,U,64586,999,5329,.35277E-3,.3967E-4,0
LEMUR-2-HUBBLE-5,2025-135BT,2026-06-12T19:18:20.534112,14.94124482,.0005426,97.7713,278.3904,9.6007,350.5316,0,U,64840,999,5325,.17597E-3,.1825E-4,0
LEMUR-2-KARENDARRELL,2025-135BU,2026-06-12T20:22:40.944000,15.00050593,.0009369,97.7673,280.0647,218.8617,141.1933,0,U,64841,999,5336,.66165E-3,.819E-4,0
LEMUR-2-LUCILLE-ROSE,2025-135BV,2026-06-12T19:45:02.094624,15.00102544,.0010801,97.7770,280.0528,299.6869,60.3279,0,U,65403,999,4798,.59229E-3,.7337E-4,0
LEMUR-2-AFFIE-WAUWIE,2025-248C,2026-06-12T05:09:17.628768,15.26994231,.00080738,45.3875,141.9244,50.7965,309.3639,0,U,66295,999,3383,.55382786E-3,.14686E-3,0
LEMUR-2-DEANANDMAEVE,2025-276N,2026-06-12T04:17:30.827328,15.19672951,.00062064,97.4217,236.7375,31.3271,328.8333,0,U,66678,999,2965,.31322451E-3,.6619E-4,0
LEMUR-2-STAS-GORBUK,2025-276W,2026-06-12T20:25:08.346720,15.19336814,.0005547,97.4254,237.4534,29.9844,330.1707,0,U,66686,999,2975,.27127E-3,.5666E-4,0
LEMUR-2-TEODOR,2025-276DG,2026-06-12T20:08:37.495104,15.21004091,.0002038,97.4157,237.6731,119.9938,240.1500,0,U,66768,999,2978,.26906E-3,.5899E-4,0
LEMUR-2-LAILA,2025-276DQ,2026-06-12T17:57:15.084864,15.21225299,.0001936,97.4182,237.7013,141.6714,218.4659,0,U,66776,999,2977,.30472E-3,.6734E-4,0
LEMUR-2-CELIJO-SB-PK,2025-276DW,2026-06-12T18:24:37.192896,14.99926331,.0008911,97.5276,234.6889,142.8815,217.3026,0,U,66781,999,2196,.6524E-3,.8051E-4,0
LEMUR-2-FINNIAN,2025-276DX,2026-06-12T17:53:09.745152,15.00324282,.0008744,97.5280,234.8779,102.3359,257.8845,0,U,66782,999,1933,.60238E-3,.7507E-4,0
LEMUR-2-STARLIGHT,2025-276DY,2026-06-12T03:55:36.248736,14.98992683,.00152861,97.5279,233.9734,141.9885,218.2420,0,U,66783,999,2944,.46227275E-3,.5558E-4,0
LEMUR-2-TARTIFLETTE,2025-276DZ,2026-06-12T03:53:33.331776,14.99022091,.00140033,97.5282,233.9778,148.0534,212.1541,0,U,66784,999,2944,.52365981E-3,.6306E-4,0
LEMUR-2-VUKASIN,2025-276EA,2026-06-12T03:50:40.058304,15.00314385,.00063184,97.5316,234.2603,135.8761,224.2968,0,U,66785,999,2939,.50609842E-3,.6293E-4,0
LEMUR-2-HOTSPUR-TOM,2025-276EB,2026-06-12T18:07:28.612128,14.98911286,.0015497,97.5270,234.5331,140.9029,219.3317,0,U,66786,999,2946,.63234E-3,.761E-4,0
LEMUR-2-MYRA,2025-276EC,2026-06-12T20:35:50.527680,15.00184856,.001607,97.5225,234.8812,155.7257,204.4727,0,U,66787,999,2956,.58758E-3,.7307E-4,0
LEMUR-2 FIKRETDENGIZ,2026-004A,2026-06-11T22:58:45.238656,14.88288269,.00096757,97.8009,161.5960,147.7877,212.3933,0,U,67363,999,2250,.38487928E-3,.3506E-4,0
TWILIGHT-1 OBJECT B,2026-004B,2026-06-12T18:53:07.162944,14.87688574,.0009698,97.8060,162.4298,136.9294,223.2683,0,U,67364,999,2263,.20161E-3,.1783E-4,0
LEMUR-2-MARIO-SOUSA,2026-004C,2026-06-12T19:34:32.889216,14.88481422,.0009363,97.7985,162.4372,145.7992,214.3830,0,U,67365,999,2264,.53267E-3,.4898E-4,0
LEMUR-2-SONNENBLUME,2026-004E,2026-06-12T19:31:25.160160,14.88294890,.000884,97.7981,162.4214,147.7995,212.3763,0,U,67367,999,2264,.335E-3,.3045E-4,0
LEMUR-2-WOBLER,2026-004F,2026-06-12T20:59:40.803648,14.88489470,.0009288,97.8033,162.5996,137.5400,222.6537,0,U,67368,999,2265,.46495E-3,.4268E-4,0
LEMUR-2-GRAM-E-SUE,2026-004H,2026-06-12T06:14:47.850720,14.88450463,.00078448,97.7968,161.8915,149.7593,210.4078,0,U,67370,999,2256,.27770845E-3,.2524E-4,0
LEMUR-2-KATIE,2026-004AA,2026-06-12T06:03:57.499776,14.90018481,.00047203,97.8029,162.3275,103.2472,256.9272,0,U,67387,999,2257,.38011421E-3,.3613E-4,0
LEMUR-2-HCS-BAZUS,2026-004AB,2026-06-12T06:02:40.469856,14.90024007,.00042884,97.8015,162.3080,99.5058,260.6645,0,U,67388,999,2257,.51105648E-3,.4878E-4,0
